{
"type": "FeatureCollection",
"name": "zona4",
"crs": { "type": "name", "properties": { "name": "urn:ogc:def:crs:OGC:1.3:CRS84" } },
"features": [
{ "type": "Feature", "properties": { "nombrevulgar": "Almendro", "nombrecientifico": "Prunus dulcis", "magnitud": 3, "tipo": "Latifoliada", "follaje": "Caduco", "lon": -70.915478995974325, "lat": -39.238051877365187 }, "geometry": { "type": "Point", "coordinates": [ -70.915478995974325, -39.238051877365187 ] } },
{ "type": "Feature", "properties": { "nombrevulgar": "Almendro", "nombrecientifico": "Prunus dulcis", "magnitud": 3, "tipo": "Latifoliada", "follaje": "Caduco", "lon": -70.915630196264118, "lat": -39.238035292529872 }, "geometry": { "type": "Point", "coordinates": [ -70.915630196264118, -39.238035292529872 ] } },
{ "type": "Feature", "properties": { "nombrevulgar": "Almendro", "nombrecientifico": "Prunus dulcis", "magnitud": 3, "tipo": "Latifoliada", "follaje": "Caduco", "lon": -70.915863786528561, "lat": -39.238921570650852 }, "geometry": { "type": "Point", "coordinates": [ -70.915863786528561, -39.238921570650852 ] } },
{ "type": "Feature", "properties": { "nombrevulgar": "Almendro", "nombrecientifico": "Prunus dulcis", "magnitud": 3, "tipo": "Latifoliada", "follaje": "Caduco", "lon": -70.915691101046747, "lat": -39.238936330806389 }, "geometry": { "type": "Point", "coordinates": [ -70.915691101046747, -39.238936330806389 ] } },
{ "type": "Feature", "properties": { "nombrevulgar": "Cipres de arizona", "nombrecientifico": "Cupressus arizonica", "magnitud": 2, "tipo": "Conífera", "follaje": "Perenne", "lon": -70.915774531181057, "lat": -39.238558620464119 }, "geometry": { "type": "Point", "coordinates": [ -70.915774531181057, -39.238558620464119 ] } },
{ "type": "Feature", "properties": { "nombrevulgar": "Cipres de arizona", "nombrecientifico": "Cupressus arizonica", "magnitud": 2, "tipo": "Conífera", "follaje": "Perenne", "lon": -70.915856420013185, "lat": -39.238029740568727 }, "geometry": { "type": "Point", "coordinates": [ -70.915856420013185, -39.238029740568727 ] } },
{ "type": "Feature", "properties": { "nombrevulgar": "Cipres de arizona", "nombrecientifico": "Cupressus arizonica", "magnitud": 2, "tipo": "Conífera", "follaje": "Perenne", "lon": -70.916172403979061, "lat": -39.238233002068043 }, "geometry": { "type": "Point", "coordinates": [ -70.916172403979061, -39.238233002068043 ] } },
{ "type": "Feature", "properties": { "nombrevulgar": "Cipres de arizona", "nombrecientifico": "Cupressus arizonica", "magnitud": 2, "tipo": "Conífera", "follaje": "Perenne", "lon": -70.916177502335827, "lat": -39.238260055975488 }, "geometry": { "type": "Point", "coordinates": [ -70.916177502335827, -39.238260055975488 ] } },
{ "type": "Feature", "properties": { "nombrevulgar": "Cipres de arizona", "nombrecientifico": "Cupressus arizonica", "magnitud": 2, "tipo": "Conífera", "follaje": "Perenne", "lon": -70.915654415498423, "lat": -39.238511478832187 }, "geometry": { "type": "Point", "coordinates": [ -70.915654415498423, -39.238511478832187 ] } },
{ "type": "Feature", "properties": { "nombrevulgar": "Cipres de arizona", "nombrecientifico": "Cupressus arizonica", "magnitud": 2, "tipo": "Conífera", "follaje": "Perenne", "lon": -70.91561055017057, "lat": -39.238386034112217 }, "geometry": { "type": "Point", "coordinates": [ -70.91561055017057, -39.238386034112217 ] } },
{ "type": "Feature", "properties": { "nombrevulgar": "Cipres de arizona", "nombrecientifico": "Cupressus arizonica", "magnitud": 2, "tipo": "Conífera", "follaje": "Perenne", "lon": -70.915507778948921, "lat": -39.23841812978344 }, "geometry": { "type": "Point", "coordinates": [ -70.915507778948921, -39.23841812978344 ] } },
{ "type": "Feature", "properties": { "nombrevulgar": "Cipres de arizona", "nombrecientifico": "Cupressus arizonica", "magnitud": 2, "tipo": "Conífera", "follaje": "Perenne", "lon": -70.916146174095616, "lat": -39.238070606859544 }, "geometry": { "type": "Point", "coordinates": [ -70.916146174095616, -39.238070606859544 ] } },
{ "type": "Feature", "properties": { "nombrevulgar": "Cipres de arizona", "nombrecientifico": "Cupressus arizonica", "magnitud": 2, "tipo": "Conífera", "follaje": "Perenne", "lon": -70.916219973957681, "lat": -39.23805751952829 }, "geometry": { "type": "Point", "coordinates": [ -70.916219973957681, -39.23805751952829 ] } },
{ "type": "Feature", "properties": { "nombrevulgar": "Cipres de arizona", "nombrecientifico": "Cupressus arizonica", "magnitud": 2, "tipo": "Conífera", "follaje": "Perenne", "lon": -70.916201322082884, "lat": -39.238093444868937 }, "geometry": { "type": "Point", "coordinates": [ -70.916201322082884, -39.238093444868937 ] } },
{ "type": "Feature", "properties": { "nombrevulgar": "Cipres de arizona", "nombrecientifico": "Cupressus arizonica", "magnitud": 2, "tipo": "Conífera", "follaje": "Perenne", "lon": -70.915901279690772, "lat": -39.238027163478051 }, "geometry": { "type": "Point", "coordinates": [ -70.915901279690772, -39.238027163478051 ] } },
{ "type": "Feature", "properties": { "nombrevulgar": "Cipres de arizona", "nombrecientifico": "Cupressus arizonica", "magnitud": 2, "tipo": "Conífera", "follaje": "Perenne", "lon": -70.915883740455016, "lat": -39.238069480268997 }, "geometry": { "type": "Point", "coordinates": [ -70.915883740455016, -39.238069480268997 ] } },
{ "type": "Feature", "properties": { "nombrevulgar": "Pino banksiana", "nombrecientifico": "Pinus banksiana", "magnitud": 2, "tipo": "Conífera", "follaje": "Perenne", "lon": -70.915739245616123, "lat": -39.238783707949274 }, "geometry": { "type": "Point", "coordinates": [ -70.915739245616123, -39.238783707949274 ] } },
{ "type": "Feature", "properties": { "nombrevulgar": "Pino banksiana", "nombrecientifico": "Pinus banksiana", "magnitud": 2, "tipo": "Conífera", "follaje": "Perenne", "lon": -70.915879899329525, "lat": -39.238865377374303 }, "geometry": { "type": "Point", "coordinates": [ -70.915879899329525, -39.238865377374303 ] } },
{ "type": "Feature", "properties": { "nombrevulgar": "Pino banksiana", "nombrecientifico": "Pinus banksiana", "magnitud": 2, "tipo": "Conífera", "follaje": "Perenne", "lon": -70.915732209786128, "lat": -39.238111592213656 }, "geometry": { "type": "Point", "coordinates": [ -70.915732209786128, -39.238111592213656 ] } },
{ "type": "Feature", "properties": { "nombrevulgar": "Coihue", "nombrecientifico": "Nothofagus dombeyi", "magnitud": 1, "tipo": "Latifoliada", "follaje": "Perenne", "lon": -70.915949170050311, "lat": -39.238583869198543 }, "geometry": { "type": "Point", "coordinates": [ -70.915949170050311, -39.238583869198543 ] } },
{ "type": "Feature", "properties": { "nombrevulgar": "Lenga", "nombrecientifico": "Nothofagus pumilio", "magnitud": 1, "tipo": "Latifoliada", "follaje": "Caduco", "lon": -70.915760685457542, "lat": -39.238074481213026 }, "geometry": { "type": "Point", "coordinates": [ -70.915760685457542, -39.238074481213026 ] } },
{ "type": "Feature", "properties": { "nombrevulgar": "Cipres de arizona", "nombrecientifico": "Cupressus arizonica", "magnitud": 2, "tipo": "Conífera", "follaje": "Perenne", "lon": -70.915683364252317, "lat": -39.238505357176244 }, "geometry": { "type": "Point", "coordinates": [ -70.915683364252317, -39.238505357176244 ] } },
{ "type": "Feature", "properties": { "nombrevulgar": "Ciruelo de flor", "nombrecientifico": "Prunus cerasifera var. pisardii", "magnitud": 3, "tipo": "Latifoliada", "follaje": "Caduco", "lon": -70.915614397591312, "lat": -39.238426673041751 }, "geometry": { "type": "Point", "coordinates": [ -70.915614397591312, -39.238426673041751 ] } },
{ "type": "Feature", "properties": { "nombrevulgar": "Ciruelo de flor", "nombrecientifico": "Prunus cerasifera var. pisardii", "magnitud": 3, "tipo": "Latifoliada", "follaje": "Caduco", "lon": -70.915954560888693, "lat": -39.238302924658505 }, "geometry": { "type": "Point", "coordinates": [ -70.915954560888693, -39.238302924658505 ] } },
{ "type": "Feature", "properties": { "nombrevulgar": "Ciruelo de flor", "nombrecientifico": "Prunus cerasifera var. pisardii", "magnitud": 3, "tipo": "Latifoliada", "follaje": "Caduco", "lon": -70.915967584709932, "lat": -39.238310533702752 }, "geometry": { "type": "Point", "coordinates": [ -70.915967584709932, -39.238310533702752 ] } },
{ "type": "Feature", "properties": { "nombrevulgar": "Ciruelo de flor", "nombrecientifico": "Prunus cerasifera var. pisardii", "magnitud": 3, "tipo": "Latifoliada", "follaje": "Caduco", "lon": -70.915903604114931, "lat": -39.238918449500538 }, "geometry": { "type": "Point", "coordinates": [ -70.915903604114931, -39.238918449500538 ] } },
{ "type": "Feature", "properties": { "nombrevulgar": "Ciruelo de flor", "nombrecientifico": "Prunus cerasifera var. pisardii", "magnitud": 3, "tipo": "Latifoliada", "follaje": "Caduco", "lon": -70.915812914313705, "lat": -39.238926312160736 }, "geometry": { "type": "Point", "coordinates": [ -70.915812914313705, -39.238926312160736 ] } },
{ "type": "Feature", "properties": { "nombrevulgar": "Ciruelo de flor", "nombrecientifico": "Prunus cerasifera var. pisardii", "magnitud": 3, "tipo": "Latifoliada", "follaje": "Caduco", "lon": -70.915733554431512, "lat": -39.238932960850228 }, "geometry": { "type": "Point", "coordinates": [ -70.915733554431512, -39.238932960850228 ] } },
{ "type": "Feature", "properties": { "nombrevulgar": "Ciruelo de flor", "nombrecientifico": "Prunus cerasifera var. pisardii", "magnitud": 3, "tipo": "Latifoliada", "follaje": "Caduco", "lon": -70.9156386383968, "lat": -39.238940892910797 }, "geometry": { "type": "Point", "coordinates": [ -70.9156386383968, -39.238940892910797 ] } },
{ "type": "Feature", "properties": { "nombrevulgar": "Ciruelo de flor", "nombrecientifico": "Prunus cerasifera var. pisardii", "magnitud": 3, "tipo": "Latifoliada", "follaje": "Caduco", "lon": -70.91603291478684, "lat": -39.238907485096874 }, "geometry": { "type": "Point", "coordinates": [ -70.91603291478684, -39.238907485096874 ] } },
{ "type": "Feature", "properties": { "nombrevulgar": "Ciruelo de flor", "nombrecientifico": "Prunus cerasifera var. pisardii", "magnitud": 3, "tipo": "Latifoliada", "follaje": "Caduco", "lon": -70.916075473836543, "lat": -39.238903989524403 }, "geometry": { "type": "Point", "coordinates": [ -70.916075473836543, -39.238903989524403 ] } },
{ "type": "Feature", "properties": { "nombrevulgar": "Ciruelo de flor", "nombrecientifico": "Prunus cerasifera var. pisardii", "magnitud": 3, "tipo": "Latifoliada", "follaje": "Caduco", "lon": -70.916114744876225, "lat": -39.238900606671365 }, "geometry": { "type": "Point", "coordinates": [ -70.916114744876225, -39.238900606671365 ] } },
{ "type": "Feature", "properties": { "nombrevulgar": "Ciruelo de flor", "nombrecientifico": "Prunus cerasifera var. pisardii", "magnitud": 3, "tipo": "Latifoliada", "follaje": "Caduco", "lon": -70.916212251567913, "lat": -39.238892465049751 }, "geometry": { "type": "Point", "coordinates": [ -70.916212251567913, -39.238892465049751 ] } },
{ "type": "Feature", "properties": { "nombrevulgar": "Ciruelo de flor", "nombrecientifico": "Prunus cerasifera var. pisardii", "magnitud": 3, "tipo": "Latifoliada", "follaje": "Caduco", "lon": -70.915513878606674, "lat": -39.23804534303035 }, "geometry": { "type": "Point", "coordinates": [ -70.915513878606674, -39.23804534303035 ] } },
{ "type": "Feature", "properties": { "nombrevulgar": "Ciruelo de flor", "nombrecientifico": "Prunus cerasifera var. pisardii", "magnitud": 3, "tipo": "Latifoliada", "follaje": "Caduco", "lon": -70.916299038046333, "lat": -39.238884949372903 }, "geometry": { "type": "Point", "coordinates": [ -70.916299038046333, -39.238884949372903 ] } },
{ "type": "Feature", "properties": { "nombrevulgar": "Ciruelo de flor", "nombrecientifico": "Prunus cerasifera var. pisardii", "magnitud": 3, "tipo": "Latifoliada", "follaje": "Caduco", "lon": -70.91558995069984, "lat": -39.238039441881824 }, "geometry": { "type": "Point", "coordinates": [ -70.91558995069984, -39.238039441881824 ] } },
{ "type": "Feature", "properties": { "nombrevulgar": "Ciruelo de flor", "nombrecientifico": "Prunus cerasifera var. pisardii", "magnitud": 3, "tipo": "Latifoliada", "follaje": "Caduco", "lon": -70.915663243454361, "lat": -39.238032908040338 }, "geometry": { "type": "Point", "coordinates": [ -70.915663243454361, -39.238032908040338 ] } },
{ "type": "Feature", "properties": { "nombrevulgar": "Ciruelo de flor", "nombrecientifico": "Prunus cerasifera var. pisardii", "magnitud": 3, "tipo": "Latifoliada", "follaje": "Caduco", "lon": -70.915753463948946, "lat": -39.238024192670295 }, "geometry": { "type": "Point", "coordinates": [ -70.915753463948946, -39.238024192670295 ] } },
{ "type": "Feature", "properties": { "nombrevulgar": "Ciruelo de flor", "nombrecientifico": "Prunus cerasifera var. pisardii", "magnitud": 3, "tipo": "Latifoliada", "follaje": "Caduco", "lon": -70.915850910375184, "lat": -39.238016549743897 }, "geometry": { "type": "Point", "coordinates": [ -70.915850910375184, -39.238016549743897 ] } },
{ "type": "Feature", "properties": { "nombrevulgar": "Ciruelo de flor", "nombrecientifico": "Prunus cerasifera var. pisardii", "magnitud": 3, "tipo": "Latifoliada", "follaje": "Caduco", "lon": -70.915940397575071, "lat": -39.23800926522221 }, "geometry": { "type": "Point", "coordinates": [ -70.915940397575071, -39.23800926522221 ] } },
{ "type": "Feature", "properties": { "nombrevulgar": "Ciruelo de flor", "nombrecientifico": "Prunus cerasifera var. pisardii", "magnitud": 3, "tipo": "Latifoliada", "follaje": "Caduco", "lon": -70.916017188523981, "lat": -39.238002588410588 }, "geometry": { "type": "Point", "coordinates": [ -70.916017188523981, -39.238002588410588 ] } },
{ "type": "Feature", "properties": { "nombrevulgar": "Ciruelo de flor", "nombrecientifico": "Prunus cerasifera var. pisardii", "magnitud": 3, "tipo": "Latifoliada", "follaje": "Caduco", "lon": -70.916103602628482, "lat": -39.237995411551438 }, "geometry": { "type": "Point", "coordinates": [ -70.916103602628482, -39.237995411551438 ] } },
{ "type": "Feature", "properties": { "nombrevulgar": "Roble europeo", "nombrecientifico": "Quercus robur", "magnitud": 1, "tipo": "Latifoliada", "follaje": "Caduco", "lon": -70.915812194186643, "lat": -39.238866386321227 }, "geometry": { "type": "Point", "coordinates": [ -70.915812194186643, -39.238866386321227 ] } },
{ "type": "Feature", "properties": { "nombrevulgar": "Roble europeo", "nombrecientifico": "Quercus robur", "magnitud": 1, "tipo": "Latifoliada", "follaje": "Caduco", "lon": -70.915909821139678, "lat": -39.238842835546045 }, "geometry": { "type": "Point", "coordinates": [ -70.915909821139678, -39.238842835546045 ] } },
{ "type": "Feature", "properties": { "nombrevulgar": "Cedro del Himalaya", "nombrecientifico": "Cedrus deodara", "magnitud": 1, "tipo": "Conífera", "follaje": "Perenne", "lon": -70.915894297761469, "lat": -39.238160221268586 }, "geometry": { "type": "Point", "coordinates": [ -70.915894297761469, -39.238160221268586 ] } },
{ "type": "Feature", "properties": { "nombrevulgar": "Negundo", "nombrecientifico": "Acer negundo", "magnitud": 3, "tipo": "Latifoliada", "follaje": "Caduco", "lon": -70.916039698110367, "lat": -39.238015691033901 }, "geometry": { "type": "Point", "coordinates": [ -70.916039698110367, -39.238015691033901 ] } },
{ "type": "Feature", "properties": { "nombrevulgar": "Pehuen", "nombrecientifico": "Araucaria araucana", "magnitud": 1, "tipo": "Conífera", "follaje": "Perenne", "lon": -70.915800546550543, "lat": -39.238033111843642 }, "geometry": { "type": "Point", "coordinates": [ -70.915800546550543, -39.238033111843642 ] } },
{ "type": "Feature", "properties": { "nombrevulgar": "Pehuen", "nombrecientifico": "Araucaria araucana", "magnitud": 1, "tipo": "Conífera", "follaje": "Perenne", "lon": -70.91608479911649, "lat": -39.238379015099106 }, "geometry": { "type": "Point", "coordinates": [ -70.91608479911649, -39.238379015099106 ] } },
{ "type": "Feature", "properties": { "nombrevulgar": "Pino oregon", "nombrecientifico": "Pseudotsuga menziesii", "magnitud": 1, "tipo": "Conífera", "follaje": "Perenne", "lon": -70.916094386896631, "lat": -39.238584250266065 }, "geometry": { "type": "Point", "coordinates": [ -70.916094386896631, -39.238584250266065 ] } },
{ "type": "Feature", "properties": { "nombrevulgar": "Pino oregon", "nombrecientifico": "Pseudotsuga menziesii", "magnitud": 1, "tipo": "Conífera", "follaje": "Perenne", "lon": -70.916159506112919, "lat": -39.238622295474208 }, "geometry": { "type": "Point", "coordinates": [ -70.916159506112919, -39.238622295474208 ] } },
{ "type": "Feature", "properties": { "nombrevulgar": "Pino oregon", "nombrecientifico": "Pseudotsuga menziesii", "magnitud": 1, "tipo": "Conífera", "follaje": "Perenne", "lon": -70.916205326202018, "lat": -39.23866442178111 }, "geometry": { "type": "Point", "coordinates": [ -70.916205326202018, -39.23866442178111 ] } },
{ "type": "Feature", "properties": { "nombrevulgar": "Picea del colorado", "nombrecientifico": "Picea pungens", "magnitud": 2, "tipo": "Conífera", "follaje": "Perenne", "lon": -70.916021989755933, "lat": -39.238155760030992 }, "geometry": { "type": "Point", "coordinates": [ -70.916021989755933, -39.238155760030992 ] } },
{ "type": "Feature", "properties": { "nombrevulgar": "Ciprés de la cordillera", "nombrecientifico": "Austrocedrus chilensis", "magnitud": 2, "tipo": "Conífera", "follaje": "Perenne", "lon": -70.916186752996964, "lat": -39.23843969173565 }, "geometry": { "type": "Point", "coordinates": [ -70.916186752996964, -39.23843969173565 ] } },
{ "type": "Feature", "properties": { "nombrevulgar": "Fresno blanco", "nombrecientifico": "Fraxinus americana", "magnitud": 1, "tipo": "Latifoliada", "follaje": "Caduco", "lon": -70.915500022103984, "lat": -39.238544127669257 }, "geometry": { "type": "Point", "coordinates": [ -70.915500022103984, -39.238544127669257 ] } },
{ "type": "Feature", "properties": { "nombrevulgar": "Cedro del Himalaya", "nombrecientifico": "Cedrus deodara", "magnitud": 1, "tipo": "Conífera", "follaje": "Perenne", "lon": -70.91618757015911, "lat": -39.238346919451232 }, "geometry": { "type": "Point", "coordinates": [ -70.91618757015911, -39.238346919451232 ] } },
{ "type": "Feature", "properties": { "nombrevulgar": "Cedro del Himalaya", "nombrecientifico": "Cedrus deodara", "magnitud": 1, "tipo": "Conífera", "follaje": "Perenne", "lon": -70.915911168921497, "lat": -39.238208469251617 }, "geometry": { "type": "Point", "coordinates": [ -70.915911168921497, -39.238208469251617 ] } },
{ "type": "Feature", "properties": { "nombrevulgar": "Acebo", "nombrecientifico": "Ilex aquifolium", "magnitud": 3, "tipo": "Latifoliada", "follaje": "Perenne", "lon": -70.915587280017803, "lat": -39.238764027724407 }, "geometry": { "type": "Point", "coordinates": [ -70.915587280017803, -39.238764027724407 ] } },
{ "type": "Feature", "properties": { "nombrevulgar": "Ciprés del Mediterráneo", "nombrecientifico": "Cupressus sempervirens", "magnitud": 2, "tipo": "Conífera", "follaje": "Perenne", "lon": -70.916198299388839, "lat": -39.238463247297595 }, "geometry": { "type": "Point", "coordinates": [ -70.916198299388839, -39.238463247297595 ] } },
{ "type": "Feature", "properties": { "nombrevulgar": "Roble europeo", "nombrecientifico": "Quercus robur", "magnitud": 1, "tipo": "Latifoliada", "follaje": "Caduco", "lon": -70.91617329225474, "lat": -39.238185496278618 }, "geometry": { "type": "Point", "coordinates": [ -70.91617329225474, -39.238185496278618 ] } },
{ "type": "Feature", "properties": { "nombrevulgar": "Roble europeo", "nombrecientifico": "Quercus robur", "magnitud": 1, "tipo": "Latifoliada", "follaje": "Caduco", "lon": -70.91609984955457, "lat": -39.238291863932524 }, "geometry": { "type": "Point", "coordinates": [ -70.91609984955457, -39.238291863932524 ] } },
{ "type": "Feature", "properties": { "nombrevulgar": "Radal", "nombrecientifico": "Lomatia hirsuta", "magnitud": 2, "tipo": "Latifoliada", "follaje": "Perenne", "lon": -70.916217320455999, "lat": -39.238440884788083 }, "geometry": { "type": "Point", "coordinates": [ -70.916217320455999, -39.238440884788083 ] } },
{ "type": "Feature", "properties": { "nombrevulgar": "Tilo", "nombrecientifico": "Tilia cordata", "magnitud": 1, "tipo": "Latifoliada", "follaje": "Caduco", "lon": -70.916233826581248, "lat": -39.238806973572714 }, "geometry": { "type": "Point", "coordinates": [ -70.916233826581248, -39.238806973572714 ] } },
{ "type": "Feature", "properties": { "nombrevulgar": "Abedul", "nombrecientifico": "Betula pendula", "magnitud": 2, "tipo": "Latifoliada", "follaje": "Caduco", "lon": -70.915718465360769, "lat": -39.238902096742812 }, "geometry": { "type": "Point", "coordinates": [ -70.915718465360769, -39.238902096742812 ] } },
{ "type": "Feature", "properties": { "nombrevulgar": "Roble pellín", "nombrecientifico": "Nothofagus obliqua", "magnitud": 1, "tipo": "Latifoliada", "follaje": "Caduco", "lon": -70.916243770315106, "lat": -39.238050343444058 }, "geometry": { "type": "Point", "coordinates": [ -70.916243770315106, -39.238050343444058 ] } },
{ "type": "Feature", "properties": { "nombrevulgar": "Roble pellín", "nombrecientifico": "Nothofagus obliqua", "magnitud": 1, "tipo": "Latifoliada", "follaje": "Caduco", "lon": -70.916271476846489, "lat": -39.2382669899497 }, "geometry": { "type": "Point", "coordinates": [ -70.916271476846489, -39.2382669899497 ] } },
{ "type": "Feature", "properties": { "nombrevulgar": "Roble pellín", "nombrecientifico": "Nothofagus obliqua", "magnitud": 1, "tipo": "Latifoliada", "follaje": "Caduco", "lon": -70.916298445342022, "lat": -39.23845651077643 }, "geometry": { "type": "Point", "coordinates": [ -70.916298445342022, -39.23845651077643 ] } },
{ "type": "Feature", "properties": { "nombrevulgar": "Roble pellín", "nombrecientifico": "Nothofagus obliqua", "magnitud": 1, "tipo": "Latifoliada", "follaje": "Caduco", "lon": -70.916316093777183, "lat": -39.238624135513426 }, "geometry": { "type": "Point", "coordinates": [ -70.916316093777183, -39.238624135513426 ] } },
{ "type": "Feature", "properties": { "nombrevulgar": "Roble pellín", "nombrecientifico": "Nothofagus obliqua", "magnitud": 1, "tipo": "Latifoliada", "follaje": "Caduco", "lon": -70.916335553289784, "lat": -39.238778161530469 }, "geometry": { "type": "Point", "coordinates": [ -70.916335553289784, -39.238778161530469 ] } },
{ "type": "Feature", "properties": { "nombrevulgar": "Cedro del Himalaya", "nombrecientifico": "Cedrus deodara", "magnitud": 1, "tipo": "Conífera", "follaje": "Perenne", "lon": -70.915908740946733, "lat": -39.238260798334252 }, "geometry": { "type": "Point", "coordinates": [ -70.915908740946733, -39.238260798334252 ] } },
{ "type": "Feature", "properties": { "nombrevulgar": "Cedro del Himalaya", "nombrecientifico": "Cedrus deodara", "magnitud": 1, "tipo": "Conífera", "follaje": "Perenne", "lon": -70.915893289174136, "lat": -39.23830551836997 }, "geometry": { "type": "Point", "coordinates": [ -70.915893289174136, -39.23830551836997 ] } },
{ "type": "Feature", "properties": { "nombrevulgar": "Cedro del Himalaya", "nombrecientifico": "Cedrus deodara", "magnitud": 1, "tipo": "Conífera", "follaje": "Perenne", "lon": -70.915774593112232, "lat": -39.23835134472894 }, "geometry": { "type": "Point", "coordinates": [ -70.915774593112232, -39.23835134472894 ] } },
{ "type": "Feature", "properties": { "nombrevulgar": "Pino de Monterrey", "nombrecientifico": "Pinus radiata", "magnitud": 1, "tipo": "Conífera", "follaje": "Perenne", "lon": -70.915717518745339, "lat": -39.23884011810469 }, "geometry": { "type": "Point", "coordinates": [ -70.915717518745339, -39.23884011810469 ] } },
{ "type": "Feature", "properties": { "nombrevulgar": "Pino de Monterrey", "nombrecientifico": "Pinus radiata", "magnitud": 1, "tipo": "Conífera", "follaje": "Perenne", "lon": -70.915992342282536, "lat": -39.238829604845293 }, "geometry": { "type": "Point", "coordinates": [ -70.915992342282536, -39.238829604845293 ] } },
{ "type": "Feature", "properties": { "nombrevulgar": "Pino de Monterrey", "nombrecientifico": "Pinus radiata", "magnitud": 1, "tipo": "Conífera", "follaje": "Perenne", "lon": -70.915711304839746, "lat": -39.238644532573772 }, "geometry": { "type": "Point", "coordinates": [ -70.915711304839746, -39.238644532573772 ] } },
{ "type": "Feature", "properties": { "nombrevulgar": "Pino de Monterrey", "nombrecientifico": "Pinus radiata", "magnitud": 1, "tipo": "Conífera", "follaje": "Perenne", "lon": -70.915563660041116, "lat": -39.238696480588992 }, "geometry": { "type": "Point", "coordinates": [ -70.915563660041116, -39.238696480588992 ] } },
{ "type": "Feature", "properties": { "nombrevulgar": "Pino de Monterrey", "nombrecientifico": "Pinus radiata", "magnitud": 1, "tipo": "Conífera", "follaje": "Perenne", "lon": -70.91554678865694, "lat": -39.238648232631874 }, "geometry": { "type": "Point", "coordinates": [ -70.91554678865694, -39.238648232631874 ] } },
{ "type": "Feature", "properties": { "nombrevulgar": "Pino de Monterrey", "nombrecientifico": "Pinus radiata", "magnitud": 1, "tipo": "Conífera", "follaje": "Perenne", "lon": -70.915762988793048, "lat": -39.238436703690546 }, "geometry": { "type": "Point", "coordinates": [ -70.915762988793048, -39.238436703690546 ] } },
{ "type": "Feature", "properties": { "nombrevulgar": "Pino de Monterrey", "nombrecientifico": "Pinus radiata", "magnitud": 1, "tipo": "Conífera", "follaje": "Perenne", "lon": -70.91575961453816, "lat": -39.238427054096583 }, "geometry": { "type": "Point", "coordinates": [ -70.91575961453816, -39.238427054096583 ] } },
{ "type": "Feature", "properties": { "nombrevulgar": "Pino de Monterrey", "nombrecientifico": "Pinus radiata", "magnitud": 1, "tipo": "Conífera", "follaje": "Perenne", "lon": -70.915484632355202, "lat": -39.238381571958286 }, "geometry": { "type": "Point", "coordinates": [ -70.915484632355202, -39.238381571958286 ] } },
{ "type": "Feature", "properties": { "nombrevulgar": "Pino de Monterrey", "nombrecientifico": "Pinus radiata", "magnitud": 1, "tipo": "Conífera", "follaje": "Perenne", "lon": -70.915830062685259, "lat": -39.238391430495732 }, "geometry": { "type": "Point", "coordinates": [ -70.915830062685259, -39.238391430495732 ] } },
{ "type": "Feature", "properties": { "nombrevulgar": "Pino de Monterrey", "nombrecientifico": "Pinus radiata", "magnitud": 1, "tipo": "Conífera", "follaje": "Perenne", "lon": -70.916040336980856, "lat": -39.238637132486467 }, "geometry": { "type": "Point", "coordinates": [ -70.916040336980856, -39.238637132486467 ] } },
{ "type": "Feature", "properties": { "nombrevulgar": "Enebro", "nombrecientifico": "Juniperus communis", "magnitud": 3, "tipo": "Conífera", "follaje": "Perenne", "lon": -70.916238602277929, "lat": -39.238501594614 }, "geometry": { "type": "Point", "coordinates": [ -70.916238602277929, -39.238501594614 ] } },
{ "type": "Feature", "properties": { "nombrevulgar": "Pino contorta", "nombrecientifico": "Pinus contorta", "magnitud": 2, "tipo": "Conífera", "follaje": "Perenne", "lon": -70.915613801041971, "lat": -39.238810235122969 }, "geometry": { "type": "Point", "coordinates": [ -70.915613801041971, -39.238810235122969 ] } },
{ "type": "Feature", "properties": { "nombrevulgar": "Pino contorta", "nombrecientifico": "Pinus contorta", "magnitud": 2, "tipo": "Conífera", "follaje": "Perenne", "lon": -70.915651926096672, "lat": -39.238771083592788 }, "geometry": { "type": "Point", "coordinates": [ -70.915651926096672, -39.238771083592788 ] } },
{ "type": "Feature", "properties": { "nombrevulgar": "Pino contorta", "nombrecientifico": "Pinus contorta", "magnitud": 2, "tipo": "Conífera", "follaje": "Perenne", "lon": -70.915827573055211, "lat": -39.238651035281514 }, "geometry": { "type": "Point", "coordinates": [ -70.915827573055211, -39.238651035281514 ] } },
{ "type": "Feature", "properties": { "nombrevulgar": "Pino contorta", "nombrecientifico": "Pinus contorta", "magnitud": 2, "tipo": "Conífera", "follaje": "Perenne", "lon": -70.915749080920165, "lat": -39.238159840199827 }, "geometry": { "type": "Point", "coordinates": [ -70.915749080920165, -39.238159840199827 ] } },
{ "type": "Feature", "properties": { "nombrevulgar": "Pino contorta", "nombrecientifico": "Pinus contorta", "magnitud": 2, "tipo": "Conífera", "follaje": "Perenne", "lon": -70.915793419122309, "lat": -39.238316274288955 }, "geometry": { "type": "Point", "coordinates": [ -70.915793419122309, -39.238316274288955 ] } },
{ "type": "Feature", "properties": { "nombrevulgar": "Pino contorta", "nombrecientifico": "Pinus contorta", "magnitud": 2, "tipo": "Conífera", "follaje": "Perenne", "lon": -70.915819056042565, "lat": -39.238093227247745 }, "geometry": { "type": "Point", "coordinates": [ -70.915819056042565, -39.238093227247745 ] } },
{ "type": "Feature", "properties": { "nombrevulgar": "Pino contorta", "nombrecientifico": "Pinus contorta", "magnitud": 2, "tipo": "Conífera", "follaje": "Perenne", "lon": -70.915851316610812, "lat": -39.238304030979961 }, "geometry": { "type": "Point", "coordinates": [ -70.915851316610812, -39.238304030979961 ] } }
]
}
